CCSDS_OMM_VERS = 2.0
CREATION_DATE  = 
ORIGINATOR     = 

OBJECT_NAME    = ALOS (DAICHI)
OBJECT_ID      = 2006-002A
CENTER_NAME    = EARTH
REF_FRAME      = TEME
TIME_SYSTEM    = UTC
MEAN_ELEMENT_THEORY = SGP/SGP4

EPOCH          = 2026-01-15T11:13:21.198144
MEAN_MOTION    = 14.69604034
ECCENTRICITY   = .00021492
INCLINATION    = 98.1134
RA_OF_ASC_NODE = 331.7280
ARG_OF_PERICENTER = 90.0956
MEAN_ANOMALY   = 270.0496

EPHEMERIS_TYPE = 0
CLASSIFICATION_TYPE = U
NORAD_CAT_ID   = 28931
ELEMENT_SET_NO = 999
REV_AT_EPOCH   = 6566
BSTAR          = .14962487E-3
MEAN_MOTION_DOT = .84E-5
MEAN_MOTION_DDOT = 0

CCSDS_OMM_VERS = 2.0
CREATION_DATE  = 
ORIGINATOR     = 

OBJECT_NAME    = H-2A R/B
OBJECT_ID      = 2006-002B
CENTER_NAME    = EARTH
REF_FRAME      = TEME
TIME_SYSTEM    = UTC
MEAN_ELEMENT_THEORY = SGP/SGP4

EPOCH          = 2026-01-15T08:08:07.658592
MEAN_MOTION    = 15.15294767
ECCENTRICITY   = .00544396
INCLINATION    = 98.2330
RA_OF_ASC_NODE = 157.8551
ARG_OF_PERICENTER = 63.4102
MEAN_ANOMALY   = 297.2693

EPHEMERIS_TYPE = 0
CLASSIFICATION_TYPE = U
NORAD_CAT_ID   = 28932
ELEMENT_SET_NO = 999
REV_AT_EPOCH   = 8635
BSTAR          = .27398684E-3
MEAN_MOTION_DOT = .5273E-4
MEAN_MOTION_DDOT = 0

CCSDS_OMM_VERS = 2.0
CREATION_DATE  = 
ORIGINATOR     = 

OBJECT_NAME    = RESURS-DK 1
OBJECT_ID      = 2006-021A
CENTER_NAME    = EARTH
REF_FRAME      = TEME
TIME_SYSTEM    = UTC
MEAN_ELEMENT_THEORY = SGP/SGP4

EPOCH          = 2026-01-15T10:21:52.935552
MEAN_MOTION    = 15.12374748
ECCENTRICITY   = .00056784
INCLINATION    = 69.9334
RA_OF_ASC_NODE = 14.7509
ARG_OF_PERICENTER = 229.3421
MEAN_ANOMALY   = 130.7252

EPHEMERIS_TYPE = 0
CLASSIFICATION_TYPE = U
NORAD_CAT_ID   = 29228
ELEMENT_SET_NO = 999
REV_AT_EPOCH   = 7947
BSTAR          = .9066385E-4
MEAN_MOTION_DOT = .1469E-4
MEAN_MOTION_DDOT = 0

CCSDS_OMM_VERS = 2.0
CREATION_DATE  = 
ORIGINATOR     = 

OBJECT_NAME    = CZ-4B R/B
OBJECT_ID      = 2006-046C
CENTER_NAME    = EARTH
REF_FRAME      = TEME
TIME_SYSTEM    = UTC
MEAN_ELEMENT_THEORY = SGP/SGP4

EPOCH          = 2026-01-15T15:04:44.827104
MEAN_MOTION    = 15.16255550
ECCENTRICITY   = .00353065
INCLINATION    = 97.5693
RA_OF_ASC_NODE = 60.6757
ARG_OF_PERICENTER = 91.4411
MEAN_ANOMALY   = 269.0866

EPHEMERIS_TYPE = 0
CLASSIFICATION_TYPE = U
NORAD_CAT_ID   = 29507
ELEMENT_SET_NO = 999
REV_AT_EPOCH   = 5200
BSTAR          = .1314347E-3
MEAN_MOTION_DOT = .2512E-4
MEAN_MOTION_DDOT = 0

CCSDS_OMM_VERS = 2.0
CREATION_DATE  = 
ORIGINATOR     = 

OBJECT_NAME    = CZ-2C R/B
OBJECT_ID      = 2007-010B
CENTER_NAME    = EARTH
REF_FRAME      = TEME
TIME_SYSTEM    = UTC
MEAN_ELEMENT_THEORY = SGP/SGP4

EPOCH          = 2026-01-15T07:47:05.663904
MEAN_MOTION    = 14.20224646
ECCENTRICITY   = .00601328
INCLINATION    = 98.3972
RA_OF_ASC_NODE = 131.2854
ARG_OF_PERICENTER = 89.5119
MEAN_ANOMALY   = 271.2948

EPHEMERIS_TYPE = 0
CLASSIFICATION_TYPE = U
NORAD_CAT_ID   = 31114
ELEMENT_SET_NO = 999
REV_AT_EPOCH   = 97214
BSTAR          = .43643594E-4
MEAN_MOTION_DOT = .54E-6
MEAN_MOTION_DDOT = 0

CCSDS_OMM_VERS = 2.0
CREATION_DATE  = 
ORIGINATOR     = 

OBJECT_NAME    = COSMO-SKYMED 1
OBJECT_ID      = 2007-023A
CENTER_NAME    = EARTH
REF_FRAME      = TEME
TIME_SYSTEM    = UTC
MEAN_ELEMENT_THEORY = SGP/SGP4

EPOCH          = 2026-01-15T15:13:52.342176
MEAN_MOTION    = 14.96052507
ECCENTRICITY   = .00012016
INCLINATION    = 97.8848
RA_OF_ASC_NODE = 206.2637
ARG_OF_PERICENTER = 74.3737
MEAN_ANOMALY   = 285.7616

EPHEMERIS_TYPE = 0
CLASSIFICATION_TYPE = U
NORAD_CAT_ID   = 31598
ELEMENT_SET_NO = 999
REV_AT_EPOCH   = 697
BSTAR          = .15824751E-3
MEAN_MOTION_DOT = .1718E-4
MEAN_MOTION_DDOT = 0

CCSDS_OMM_VERS = 2.0
CREATION_DATE  = 
ORIGINATOR     = 

OBJECT_NAME    = COSMOS 2428
OBJECT_ID      = 2007-029A
CENTER_NAME    = EARTH
REF_FRAME      = TEME
TIME_SYSTEM    = UTC
MEAN_ELEMENT_THEORY = SGP/SGP4

EPOCH          = 2026-01-15T07:06:43.731072
MEAN_MOTION    = 14.12910326
ECCENTRICITY   = .00056914
INCLINATION    = 70.9398
RA_OF_ASC_NODE = 315.4261
ARG_OF_PERICENTER = 338.6875
MEAN_ANOMALY   = 21.4008

EPHEMERIS_TYPE = 0
CLASSIFICATION_TYPE = U
NORAD_CAT_ID   = 31792
ELEMENT_SET_NO = 999
REV_AT_EPOCH   = 95655
BSTAR          = .20430138E-3
MEAN_MOTION_DOT = .333E-5
MEAN_MOTION_DDOT = 0

CCSDS_OMM_VERS = 2.0
CREATION_DATE  = 
ORIGINATOR     = 

OBJECT_NAME    = SL-16 R/B
OBJECT_ID      = 2007-029B
CENTER_NAME    = EARTH
REF_FRAME      = TEME
TIME_SYSTEM    = UTC
MEAN_ELEMENT_THEORY = SGP/SGP4

EPOCH          = 2026-01-15T04:51:43.496928
MEAN_MOTION    = 14.14824001
ECCENTRICITY   = .00022371
INCLINATION    = 70.9761
RA_OF_ASC_NODE = 284.8180
ARG_OF_PERICENTER = 273.6037
MEAN_ANOMALY   = 239.5843

EPHEMERIS_TYPE = 0
CLASSIFICATION_TYPE = U
NORAD_CAT_ID   = 31793
ELEMENT_SET_NO = 999
REV_AT_EPOCH   = 95780
BSTAR          = -.11512328E-3
MEAN_MOTION_DOT = -.27E-5
MEAN_MOTION_DDOT = 0

CCSDS_OMM_VERS = 2.0
CREATION_DATE  = 
ORIGINATOR     = 

OBJECT_NAME    = KORONAS-FOTON
OBJECT_ID      = 2009-003A
CENTER_NAME    = EARTH
REF_FRAME      = TEME
TIME_SYSTEM    = UTC
MEAN_ELEMENT_THEORY = SGP/SGP4

EPOCH          = 2026-01-15T09:05:21.075360
MEAN_MOTION    = 15.41909753
ECCENTRICITY   = .00111236
INCLINATION    = 82.4320
RA_OF_ASC_NODE = 331.2303
ARG_OF_PERICENTER = 1.7200
MEAN_ANOMALY   = 358.4083

EPHEMERIS_TYPE = 0
CLASSIFICATION_TYPE = U
NORAD_CAT_ID   = 33504
ELEMENT_SET_NO = 999
REV_AT_EPOCH   = 93752
BSTAR          = .1441009E-3
MEAN_MOTION_DOT = .6172E-4
MEAN_MOTION_DDOT = 0

